{
  "type": "FeatureCollection",
  "features": [
    {
      "type": "Feature",
      "properties": {
        "norad_id": 40376,
        "name": "SMAP",
        "group": "resource",
        "lat": 46.44675450873103,
        "lon": -167.11270679665418,
        "alt_km": 677.629609832271,
        "timestamp": "2025-12-25T16:53:14.311101+00:00",
        "meta_object_name": "SMAP",
        "meta_object_id": "2015-003A",
        "meta_epoch": "2025-12-25T06:26:09.912192",
        "meta_mean_motion": 14.63360027,
        "meta_eccentricity": 0.00012373,
        "meta_inclination": 98.1291,
        "meta_ra_of_asc_node": 3.8114,
        "meta_arg_of_pericenter": 92.1923,
        "meta_mean_anomaly": 267.9421,
        "meta_ephemeris_type": 0,
        "meta_classification_type": "U",
        "meta_norad_cat_id": 40376,
        "meta_element_set_no": 999,
        "meta_rev_at_epoch": 58218,
        "meta_bstar": 0.00011437238,
        "meta_mean_motion_dot": 5.44e-06,
        "meta_mean_motion_ddot": 0,
        "tle_line1": "1 40376U 15003A   25359.26817028  .00000544  00000+0  11437-3 0  9998",
        "tle_line2": "2 40376  98.1291   3.8114 0001237  92.1923 267.9421 14.63360027582185"
      },
      "geometry": {
        "type": "Point",
        "coordinates": [
          -167.11270679665418,
          46.44675450873103
        ]
      }
    },
    {
      "type": "Feature",
      "properties": {
        "norad_id": 40536,
        "name": "KOMPSAT-3A",
        "group": "resource",
        "lat": -9.476308389493603,
        "lon": -23.938425509895428,
        "alt_km": 438.52534809909776,
        "timestamp": "2025-12-25T16:53:14.311112+00:00",
        "meta_object_name": "KOMPSAT-3A",
        "meta_object_id": "2015-014A",
        "meta_epoch": "2025-12-25T06:02:37.052736",
        "meta_mean_motion": 15.44400915,
        "meta_eccentricity": 0.00056282,
        "meta_inclination": 97.6807,
        "meta_ra_of_asc_node": 334.2935,
        "meta_arg_of_pericenter": 100.1174,
        "meta_mean_anomaly": 260.0709,
        "meta_ephemeris_type": 0,
        "meta_classification_type": "U",
        "meta_norad_cat_id": 40536,
        "meta_element_set_no": 999,
        "meta_rev_at_epoch": 59488,
        "meta_bstar": 0.00042728993,
        "meta_mean_motion_dot": 0.00019681,
        "meta_mean_motion_ddot": 0,
        "tle_line1": "1 40536U 15014A   25359.25181774  .00019681  00000+0  42729-3 0  9999",
        "tle_line2": "2 40536  97.6807 334.2935 0005628 100.1174 260.0709 15.44400915594882"
      },
      "geometry": {
        "type": "Point",
        "coordinates": [
          -23.938425509895428,
          -9.476308389493603
        ]
      }
    },
    {
      "type": "Feature",
      "properties": {
        "norad_id": 40697,
        "name": "SENTINEL-2A",
        "group": "resource",
        "lat": -72.7868644648207,
        "lon": 101.19262093676076,
        "alt_km": 797.0345915740099,
        "timestamp": "2025-12-25T16:53:14.311122+00:00",
        "meta_object_name": "SENTINEL-2A",
        "meta_object_id": "2015-028A",
        "meta_epoch": "2025-12-25T07:10:03.037728",
        "meta_mean_motion": 14.30810416,
        "meta_eccentricity": 0.00010551,
        "meta_inclination": 98.5728,
        "meta_ra_of_asc_node": 71.6554,
        "meta_arg_of_pericenter": 90.3997,
        "meta_mean_anomaly": 269.7307,
        "meta_ephemeris_type": 0,
        "meta_classification_type": "U",
        "meta_norad_cat_id": 40697,
        "meta_element_set_no": 999,
        "meta_rev_at_epoch": 54886,
        "meta_bstar": 6.2592653e-05,
        "meta_mean_motion_dot": 1.2e-06,
        "meta_mean_motion_ddot": 0,
        "tle_line1": "1 40697U 15028A   25359.29864627  .00000120  00000+0  62593-4 0  9991",
        "tle_line2": "2 40697  98.5728  71.6554 0001055  90.3997 269.7307 14.30810416548866"
      },
      "geometry": {
        "type": "Point",
        "coordinates": [
          101.19262093676076,
          -72.7868644648207
        ]
      }
    },
    {
      "type": "Feature",
      "properties": {
        "norad_id": 40701,
        "name": "GAOFEN-8",
        "group": "resource",
        "lat": -38.09735121862314,
        "lon": -175.43863808197094,
        "alt_km": 460.67681507678935,
        "timestamp": "2025-12-25T16:53:14.311132+00:00",
        "meta_object_name": "GAOFEN-8",
        "meta_object_id": "2015-030A",
        "meta_epoch": "2025-12-25T07:41:30.648768",
        "meta_mean_motion": 15.3901081,
        "meta_eccentricity": 0.0011506,
        "meta_inclination": 97.69,
        "meta_ra_of_asc_node": 178.0781,
        "meta_arg_of_pericenter": 94.816,
        "meta_mean_anomaly": 265.4399,
        "meta_ephemeris_type": 0,
        "meta_classification_type": "U",
        "meta_norad_cat_id": 40701,
        "meta_element_set_no": 999,
        "meta_rev_at_epoch": 58464,
        "meta_bstar": 0.001053087,
        "meta_mean_motion_dot": 0.00040847,
        "meta_mean_motion_ddot": 0,
        "tle_line1": "1 40701U 15030A   25359.32049362  .00040847  00000+0  10531-2 0  9998",
        "tle_line2": "2 40701  97.6900 178.0781 0011506  94.8160 265.4399 15.39010810584641"
      },
      "geometry": {
        "type": "Point",
        "coordinates": [
          -175.43863808197094,
          -38.09735121862314
        ]
      }
    },
    {
      "type": "Feature",
      "properties": {
        "norad_id": 40718,
        "name": "CARBONITE 1 (CBNT-1)",
        "group": "resource",
        "lat": 15.760026878515868,
        "lon": 2.3481144313556435,
        "alt_km": 611.4421485799112,
        "timestamp": "2025-12-25T16:53:14.311142+00:00",
        "meta_object_name": "CARBONITE 1 (CBNT-1)",
        "meta_object_id": "2015-032D",
        "meta_epoch": "2025-12-25T06:26:01.104576",
        "meta_mean_motion": 14.82799261,
        "meta_eccentricity": 0.00154078,
        "meta_inclination": 97.6405,
        "meta_ra_of_asc_node": 179.7607,
        "meta_arg_of_pericenter": 141.0206,
        "meta_mean_anomaly": 219.2122,
        "meta_ephemeris_type": 0,
        "meta_classification_type": "U",
        "meta_norad_cat_id": 40718,
        "meta_element_set_no": 999,
        "meta_rev_at_epoch": 56356,
        "meta_bstar": 0.00016972565,
        "meta_mean_motion_dot": 1.325e-05,
        "meta_mean_motion_ddot": 0,
        "tle_line1": "1 40718U 15032D   25359.26806834  .00001325  00000+0  16973-3 0  9991",
        "tle_line2": "2 40718  97.6405 179.7607 0015407 141.0206 219.2122 14.82799261563564"
      },
      "geometry": {
        "type": "Point",
        "coordinates": [
          2.3481144313556435,
          15.760026878515868
        ]
      }
    },
    {
      "type": "Feature",
      "properties": {
        "norad_id": 40878,
        "name": "YAOGAN-27",
        "group": "resource",
        "lat": 14.057383374921526,
        "lon": -13.821057007097915,
        "alt_km": 1203.3793352827297,
        "timestamp": "2025-12-25T16:53:14.311153+00:00",
        "meta_object_name": "YAOGAN-27",
        "meta_object_id": "2015-040A",
        "meta_epoch": "2025-12-25T05:52:04.267776",
        "meta_mean_motion": 13.16062945,
        "meta_eccentricity": 0.00075536,
        "meta_inclination": 100.102,
        "meta_ra_of_asc_node": 348.2989,
        "meta_arg_of_pericenter": 255.5662,
        "meta_mean_anomaly": 104.4614,
        "meta_ephemeris_type": 0,
        "meta_classification_type": "U",
        "meta_norad_cat_id": 40878,
        "meta_element_set_no": 999,
        "meta_rev_at_epoch": 49478,
        "meta_bstar": 0.001149905,
        "meta_mean_motion_dot": 3.94e-06,
        "meta_mean_motion_ddot": 0,
        "tle_line1": "1 40878U 15040A   25359.24449384  .00000394  00000+0  11499-2 0  9990",
        "tle_line2": "2 40878 100.1020 348.2989 0007553 255.5662 104.4614 13.16062945494786"
      },
      "geometry": {
        "type": "Point",
        "coordinates": [
          -13.821057007097915,
          14.057383374921526
        ]
      }
    },
    {
      "type": "Feature",
      "properties": {
        "norad_id": 40894,
        "name": "GAOFEN-9 01",
        "group": "resource",
        "lat": 68.04499854442756,
        "lon": 18.614473526211697,
        "alt_km": 610.6519102990478,
        "timestamp": "2025-12-25T16:53:14.311163+00:00",
        "meta_object_name": "GAOFEN-9 01",
        "meta_object_id": "2015-047A",
        "meta_epoch": "2025-12-25T06:51:25.851168",
        "meta_mean_motion": 14.82452043,
        "meta_eccentricity": 0.00273674,
        "meta_inclination": 97.6527,
        "meta_ra_of_asc_node": 37.6986,
        "meta_arg_of_pericenter": 353.6814,
        "meta_mean_anomaly": 6.405,
        "meta_ephemeris_type": 0,
        "meta_classification_type": "U",
        "meta_norad_cat_id": 40894,
        "meta_element_set_no": 999,
        "meta_rev_at_epoch": 55442,
        "meta_bstar": 0.00014717592,
        "meta_mean_motion_dot": 1.136e-05,
        "meta_mean_motion_ddot": 0,
        "tle_line1": "1 40894U 15047A   25359.28571587  .00001136  00000+0  14718-3 0  9993",
        "tle_line2": "2 40894  97.6527  37.6986 0027367 353.6814   6.4050 14.82452043554425"
      },
      "geometry": {
        "type": "Point",
        "coordinates": [
          18.614473526211697,
          68.04499854442756
        ]
      }
    }
  ]
}